{"type": "FeatureCollection", "features": [ {"type": "Feature", "properties": {"norad_id": 35445, "name": "COSMOS 2251 DEB", "group": "cosmos-2251-debris", "lat": -50.151187509439055, "lon": -91.95506336559643, "alt_km": 660.2052866941876, "timestamp": "2025-12-18T23:35:49.459338+00:00", "meta": {"OBJECT_NAME": "COSMOS 2251 DEB", "OBJECT_ID": "1993-036AKP", "EPOCH": "2025-12-18T05:44:09.269952", "MEAN_MOTION": 14.59267708, "ECCENTRICITY": 0.0143868, "INCLINATION": 74.0369, "RA_OF_ASC_NODE": 289.5205, "ARG_OF_PERICENTER": 15.1683, "MEAN_ANOMALY": 345.3726, "EPHEMERIS_TYPE": 0, "CLASSIFICATION_TYPE": "U", "NORAD_CAT_ID": 35445, "ELEMENT_SET_NO": 999, "REV_AT_EPOCH": 87409, "BSTAR": 0.0018624247, "MEAN_MOTION_DOT": 0.00010147, "MEAN_MOTION_DDOT": 0}, "tle": {"line1": "1 35445U 93036AKP 25352.23899618  .00010147  00000+0  18624-2 0  9990", "line2": "2 35445  74.0369 289.5205 0143868  15.1683 345.3726 14.59267708874094"}}, "geometry": {"type": "Point", "coordinates": [-91.95506336559643, -50.151187509439055]}}, {"type": "Feature", "properties": {"norad_id": 35446, "name": "COSMOS 2251 DEB", "group": "cosmos-2251-debris", "lat": -57.96154198758076, "lon": 153.57590696151658, "alt_km": 770.1374285952334, "timestamp": "2025-12-18T23:35:49.459348+00:00", "meta": {"OBJECT_NAME": "COSMOS 2251 DEB", "OBJECT_ID": "1993-036AKQ", "EPOCH": "2025-12-18T05:59:12.750432", "MEAN_MOTION": 14.54634793, "ECCENTRICITY": 0.00745391, "INCLINATION": 74.0467, "RA_OF_ASC_NODE": 307.7629, "ARG_OF_PERICENTER": 64.3886, "MEAN_ANOMALY": 296.4954, "EPHEMERIS_TYPE": 0, "CLASSIFICATION_TYPE": "U", "NORAD_CAT_ID": 35446, "ELEMENT_SET_NO": 999, "REV_AT_EPOCH": 88088, "BSTAR": 9.8850262e-05, "MEAN_MOTION_DOT": 4.08e-06, "MEAN_MOTION_DDOT": 0}, "tle": {"line1": "1 35446U 93036AKQ 25352.24945313  .00000408  00000+0  98850-4 0  9996", "line2": "2 35446  74.0467 307.7629 0074539  64.3886 296.4954 14.54634793880886"}}, "geometry": {"type": "Point", "coordinates": [153.57590696151658, -57.96154198758076]}}, {"type": "Feature", "properties": {"norad_id": 35448, "name": "COSMOS 2251 DEB", "group": "cosmos-2251-debris", "lat": 73.60955022560378, "lon": 178.58414114789525, "alt_km": 712.5923407081837, "timestamp": "2025-12-18T23:35:49.459358+00:00", "meta": {"OBJECT_NAME": "COSMOS 2251 DEB", "OBJECT_ID": "1993-036AKS", "EPOCH": "2025-12-17T15:48:08.057376", "MEAN_MOTION": 14.54306329, "ECCENTRICITY": 0.00121573, "INCLINATION": 73.9037, "RA_OF_ASC_NODE": 80.133, "ARG_OF_PERICENTER": 263.1799, "MEAN_ANOMALY": 96.798, "EPHEMERIS_TYPE": 0, "CLASSIFICATION_TYPE": "U", "NORAD_CAT_ID": 35448, "ELEMENT_SET_NO": 999, "REV_AT_EPOCH": 87406, "BSTAR": 0.00080210225, "MEAN_MOTION_DOT": 3.379e-05, "MEAN_MOTION_DDOT": 0}, "tle": {"line1": "1 35448U 93036AKS 25351.65842659  .00003379  00000+0  80210-3 0  9991", "line2": "2 35448  73.9037  80.1330 0012157 263.1799  96.7980 14.54306329874064"}}, "geometry": {"type": "Point", "coordinates": [178.58414114789525, 73.60955022560378]}}, {"type": "Feature", "properties": {"norad_id": 35451, "name": "COSMOS 2251 DEB", "group": "cosmos-2251-debris", "lat": 30.7504124658965, "lon": -100.69974072399528, "alt_km": 483.51442599447637, "timestamp": "2025-12-18T23:35:49.459369+00:00", "meta": {"OBJECT_NAME": "COSMOS 2251 DEB", "OBJECT_ID": "1993-036AKV", "EPOCH": "2025-12-18T13:34:39.073728", "MEAN_MOTION": 15.36168716, "ECCENTRICITY": 0.00414156, "INCLINATION": 73.9322, "RA_OF_ASC_NODE": 90.0765, "ARG_OF_PERICENTER": 335.4246, "MEAN_ANOMALY": 24.4984, "EPHEMERIS_TYPE": 0, "CLASSIFICATION_TYPE": "U", "NORAD_CAT_ID": 35451, "ELEMENT_SET_NO": 999, "REV_AT_EPOCH": 67495, "BSTAR": 0.0011918632, "MEAN_MOTION_DOT": 0.00043428, "MEAN_MOTION_DDOT": 0}, "tle": {"line1": "1 35451U 93036AKV 25352.56573002  .00043428  00000+0  11919-2 0  9997", "line2": "2 35451  73.9322  90.0765 0041415 335.4246  24.4984 15.36168716674951"}}, "geometry": {"type": "Point", "coordinates": [-100.69974072399528, 30.7504124658965]}}, {"type": "Feature", "properties": {"norad_id": 35453, "name": "COSMOS 2251 DEB", "group": "cosmos-2251-debris", "lat": 37.74515959916538, "lon": 176.02956501473008, "alt_km": 714.1422079184003, "timestamp": "2025-12-18T23:35:49.459379+00:00", "meta": {"OBJECT_NAME": "COSMOS 2251 DEB", "OBJECT_ID": "1993-036AKX", "EPOCH": "2025-12-16T19:11:22.117056", "MEAN_MOTION": 14.38003213, "ECCENTRICITY": 0.00669431, "INCLINATION": 74.0096, "RA_OF_ASC_NODE": 12.8823, "ARG_OF_PERICENTER": 145.8531, "MEAN_ANOMALY": 214.6957, "EPHEMERIS_TYPE": 0, "CLASSIFICATION_TYPE": "U", "NORAD_CAT_ID": 35453, "ELEMENT_SET_NO": 999, "REV_AT_EPOCH": 86277, "BSTAR": 0.00051941791, "MEAN_MOTION_DOT": 1.586e-05, "MEAN_MOTION_DDOT": 0}, "tle": {"line1": "1 35453U 93036AKX 25350.79956154  .00001586  00000+0  51942-3 0  9995", "line2": "2 35453  74.0096  12.8823 0066943 145.8531 214.6957 14.38003213862776"}}, "geometry": {"type": "Point", "coordinates": [176.02956501473008, 37.74515959916538]}}, {"type": "Feature", "properties": {"norad_id": 35455, "name": "COSMOS 2251 DEB", "group": "cosmos-2251-debris", "lat": -64.16041691743402, "lon": 139.33873586585102, "alt_km": 784.476421487805, "timestamp": "2025-12-18T23:35:49.459389+00:00", "meta": {"OBJECT_NAME": "COSMOS 2251 DEB", "OBJECT_ID": "1993-036AKZ", "EPOCH": "2025-12-18T05:53:03.586560", "MEAN_MOTION": 14.4947005, "ECCENTRICITY": 0.00994585, "INCLINATION": 74.0278, "RA_OF_ASC_NODE": 284.466, "ARG_OF_PERICENTER": 26.6779, "MEAN_ANOMALY": 333.9447, "EPHEMERIS_TYPE": 0, "CLASSIFICATION_TYPE": "U", "NORAD_CAT_ID": 35455, "ELEMENT_SET_NO": 999, "REV_AT_EPOCH": 86623, "BSTAR": 0.0012785367, "MEAN_MOTION_DOT": 5.19e-05, "MEAN_MOTION_DDOT": 0}, "tle": {"line1": "1 35455U 93036AKZ 25352.24518040  .00005190  00000+0  12785-2 0  9993", "line2": "2 35455  74.0278 284.4660 0099458  26.6779 333.9447 14.49470050866236"}}, "geometry": {"type": "Point", "coordinates": [139.33873586585102, -64.16041691743402]}}, {"type": "Feature", "properties": {"norad_id": 35456, "name": "COSMOS 2251 DEB", "group": "cosmos-2251-debris", "lat": -17.801248754753434, "lon": 100.01351139668353, "alt_km": 625.7800660241755, "timestamp": "2025-12-18T23:35:49.459399+00:00", "meta": {"OBJECT_NAME": "COSMOS 2251 DEB", "OBJECT_ID": "1993-036ALA", "EPOCH": "2025-12-16T14:29:43.540224", "MEAN_MOTION": 14.69499444, "ECCENTRICITY": 0.00664454, "INCLINATION": 73.9504, "RA_OF_ASC_NODE": 109.9489, "ARG_OF_PERICENTER": 318.8739, "MEAN_ANOMALY": 40.7432, "EPHEMERIS_TYPE": 0, "CLASSIFICATION_TYPE": "U", "NORAD_CAT_ID": 35456, "ELEMENT_SET_NO": 999, "REV_AT_EPOCH": 65932, "BSTAR": 0.0012425086, "MEAN_MOTION_DOT": 7.595e-05, "MEAN_MOTION_DDOT": 0}, "tle": {"line1": "1 35456U 93036ALA 25350.60397616  .00007595  00000+0  12425-2 0  9998", "line2": "2 35456  73.9504 109.9489 0066445 318.8739  40.7432 14.69499444659326"}}, "geometry": {"type": "Point", "coordinates": [100.01351139668353, -17.801248754753434]}}, {"type": "Feature", "properties": {"norad_id": 35459, "name": "COSMOS 2251 DEB", "group": "cosmos-2251-debris", "lat": 3.92459713248129, "lon": 176.81839792832506, "alt_km": 774.2578978422198, "timestamp": "2025-12-18T23:35:49.459410+00:00", "meta": {"OBJECT_NAME": "COSMOS 2251 DEB", "OBJECT_ID": "1993-036ALD", "EPOCH": "2025-12-17T19:11:00.873024", "MEAN_MOTION": 14.37469257, "ECCENTRICITY": 0.00161114, "INCLINATION": 73.8694, "RA_OF_ASC_NODE": 177.8806, "ARG_OF_PERICENTER": 124.2019, "MEAN_ANOMALY": 236.0663, "EPHEMERIS_TYPE": 0, "CLASSIFICATION_TYPE": "U", "NORAD_CAT_ID": 35459, "ELEMENT_SET_NO": 999, "REV_AT_EPOCH": 58434, "BSTAR": 0.00020652063, "MEAN_MOTION_DOT": 5.92e-06, "MEAN_MOTION_DDOT": 0}, "tle": {"line1": "1 35459U 93036ALD 25351.79931566  .00000592  00000+0  20652-3 0  9992", "line2": "2 35459  73.8694 177.8806 0016111 124.2019 236.0663 14.37469257584349"}}, "geometry": {"type": "Point", "coordinates": [176.81839792832506, 3.92459713248129]}}, {"type": "Feature", "properties": {"norad_id": 35462, "name": "COSMOS 2251 DEB", "group": "cosmos-2251-debris", "lat": -60.348017263803854, "lon": 107.53283690689926, "alt_km": 757.5654496834277, "timestamp": "2025-12-18T23:35:49.459420+00:00", "meta": {"OBJECT_NAME": "COSMOS 2251 DEB", "OBJECT_ID": "1993-036ALG", "EPOCH": "2025-12-15T12:08:22.276032", "MEAN_MOTION": 14.29319782, "ECCENTRICITY": 0.00867718, "INCLINATION": 74.0367, "RA_OF_ASC_NODE": 263.6601, "ARG_OF_PERICENTER": 298.2214, "MEAN_ANOMALY": 61.0193, "EPHEMERIS_TYPE": 0, "CLASSIFICATION_TYPE": "U", "NORAD_CAT_ID": 35462, "ELEMENT_SET_NO": 999, "REV_AT_EPOCH": 66420, "BSTAR": 0.0011070348, "MEAN_MOTION_DOT": 2.91e-05, "MEAN_MOTION_DDOT": 0}, "tle": {"line1": "1 35462U 93036ALG 25349.50581338  .00002910  00000+0  11070-2 0  9999", "line2": "2 35462  74.0367 263.6601 0086771 298.2214  61.0193 14.29319782664204"}}, "geometry": {"type": "Point", "coordinates": [107.53283690689926, -60.348017263803854]}}, {"type": "Feature", "properties": {"norad_id": 35465, "name": "COSMOS 2251 DEB", "group": "cosmos-2251-debris", "lat": -70.8113772035396, "lon": 129.8277724286889, "alt_km": 730.4921438400788, "timestamp": "2025-12-18T23:35:49.459430+00:00", "meta": {"OBJECT_NAME": "COSMOS 2251 DEB", "OBJECT_ID": "1993-036ALK", "EPOCH": "2025-12-17T13:03:02.562624", "MEAN_MOTION": 14.44331537, "ECCENTRICITY": 0.00642719, "INCLINATION": 73.9967, "RA_OF_ASC_NODE": 188.0661, "ARG_OF_PERICENTER": 347.2721, "MEAN_ANOMALY": 12.6809, "EPHEMERIS_TYPE": 0, "CLASSIFICATION_TYPE": "U", "NORAD_CAT_ID": 35465, "ELEMENT_SET_NO": 999, "REV_AT_EPOCH": 87311, "BSTAR": 0.00028334394, "MEAN_MOTION_DOT": 9.72e-06, "MEAN_MOTION_DDOT": 0}, "tle": {"line1": "1 35465U 93036ALK 25351.54377966  .00000972  00000+0  28334-3 0  9997", "line2": "2 35465  73.9967 188.0661 0064271 347.2721  12.6809 14.44331537873113"}}, "geometry": {"type": "Point", "coordinates": [129.8277724286889, -70.8113772035396]}}]}